0 FENGYUN 1C DEB
1 29932U 99025JE  13281.53310153  .00000308  00000-0  18865-3 0   405
2 29932 098.9770 285.4793 0040771 124.5850 003.8401 14.12771645347197
0 FENGYUN 1C DEB
1 29932U 99025JE  13286.96513547  .00000361  00000-0  21669-3 0   426
2 29932 098.9762 290.9240 0040822 109.6834 270.6478 14.12777416347964
0 FENGYUN 1C DEB
1 29932U 99025JE  13289.53550917  .00000338  00000-0  20468-3 0   435
2 29932 098.9762 293.4998 0040844 102.5832 023.4146 14.12781002348329
0 FENGYUN 1C DEB
1 29932U 99025JE  13291.87113550  .00000552  00000-0  31895-3 0   448
2 29932 098.9765 295.8402 0040843 096.1540 022.2808 14.12781352348657
0 FENGYUN 1C DEB
1 29932U 99025JE  13293.97831944  .00000542  00000-0  31359-3 0   450
2 29932 098.9767 297.9521 0040760 090.3070 299.3499 14.12784283348958
